{
"type": "FeatureCollection",
"name": "Sewer_Facilities",
"crs": { "type": "name", "properties": { "name": "urn:ogc:def:crs:OGC:1.3:CRS84" } },
"features": [
{ "type": "Feature", "properties": { "Asset_ID": "67405", "Assetic_As": "SPS022", "USE_": "Pump Station", "DIAMETER_m": 1800, "INVERTLEVE": 10.59, "MH_NUMBER": null, "CATCHMENTP": null, "OWNER": "LCC", "STATUS": "Existing", "ProjectID": "LWAlliance CD00134 PBE032" }, "geometry": { "type": "Point", "coordinates": [ 153.127892999206864, -27.685013554350771, 0.0 ] } },
{ "type": "Feature", "properties": { "Asset_ID": "67588", "Assetic_As": "SPS001", "USE_": "Pump Station", "DIAMETER_m": 100, "INVERTLEVE": -999.0, "MH_NUMBER": null, "CATCHMENTP": null, "OWNER": "LCC", "STATUS": "Existing", "ProjectID": "DF" }, "geometry": { "type": "Point", "coordinates": [ 153.187092905167106, -27.700884257746452, 0.0 ] } },
{ "type": "Feature", "properties": { "Asset_ID": "67627", "Assetic_As": "SPS043", "USE_": "Pump Station", "DIAMETER_m": 150, "INVERTLEVE": -999.0, "MH_NUMBER": null, "CATCHMENTP": null, "OWNER": "LCC", "STATUS": "Existing", "ProjectID": "LWAlliance CD00134 PBE032" }, "geometry": { "type": "Point", "coordinates": [ 153.066543282594068, -27.665104864731131, 0.0 ] } },
{ "type": "Feature", "properties": { "Asset_ID": "68865", "Assetic_As": "SPS047", "USE_": "Pump Station", "DIAMETER_m": 300, "INVERTLEVE": -999.0, "MH_NUMBER": null, "CATCHMENTP": null, "OWNER": "LCC", "STATUS": "Existing", "ProjectID": "DF" }, "geometry": { "type": "Point", "coordinates": [ 153.091476308024198, -27.659092424991609, 0.0 ] } },
{ "type": "Feature", "properties": { "Asset_ID": "69464", "Assetic_As": "ZPS30109", "USE_": "Pump Station", "DIAMETER_m": 150, "INVERTLEVE": -999.0, "MH_NUMBER": null, "CATCHMENTP": null, "OWNER": "P", "STATUS": "Existing", "ProjectID": "Private" }, "geometry": { "type": "Point", "coordinates": [ 153.10829551818199, -27.592839275135436, 0.0 ] } },
{ "type": "Feature", "properties": { "Asset_ID": "69746", "Assetic_As": "SPS062", "USE_": "Pump Station", "DIAMETER_m": 1050, "INVERTLEVE": 3.57, "MH_NUMBER": null, "CATCHMENTP": null, "OWNER": "LCC", "STATUS": "Existing", "ProjectID": "DF" }, "geometry": { "type": "Point", "coordinates": [ 153.197177342988311, -27.681261551649978, 0.0 ] } },
{ "type": "Feature", "properties": { "Asset_ID": "70178", "Assetic_As": "SPS021", "USE_": "Pump Station", "DIAMETER_m": 2400, "INVERTLEVE": 23.6, "MH_NUMBER": null, "CATCHMENTP": null, "OWNER": "LCC", "STATUS": "Existing", "ProjectID": "DF" }, "geometry": { "type": "Point", "coordinates": [ 153.095198533991379, -27.639327658098573, 0.0 ] } },
{ "type": "Feature", "properties": { "Asset_ID": "72675", "Assetic_As": "SPS042", "USE_": "Pump Station", "DIAMETER_m": 150, "INVERTLEVE": 35.331, "MH_NUMBER": null, "CATCHMENTP": null, "OWNER": "LCC", "STATUS": "Existing", "ProjectID": "DF" }, "geometry": { "type": "Point", "coordinates": [ 153.134258688654739, -27.589043053939349, 0.0 ] } },
{ "type": "Feature", "properties": { "Asset_ID": "72861", "Assetic_As": "SPS033", "USE_": "Pump Station", "DIAMETER_m": 150, "INVERTLEVE": -999.0, "MH_NUMBER": null, "CATCHMENTP": null, "OWNER": "LCC", "STATUS": "Existing", "ProjectID": "LWAlliance CD00134 PBE032" }, "geometry": { "type": "Point", "coordinates": [ 153.097264528153374, -27.624250959827915, 0.0 ] } },
{ "type": "Feature", "properties": { "Asset_ID": "73045", "Assetic_As": "SPS018", "USE_": "Pump Station", "DIAMETER_m": 150, "INVERTLEVE": -999.0, "MH_NUMBER": null, "CATCHMENTP": null, "OWNER": "LCC", "STATUS": "Existing", "ProjectID": "DF" }, "geometry": { "type": "Point", "coordinates": [ 153.180060025342584, -27.693564716713006, 0.0 ] } },
{ "type": "Feature", "properties": { "Asset_ID": "73134", "Assetic_As": "SPS030", "USE_": "Pump Station", "DIAMETER_m": 150, "INVERTLEVE": -999.0, "MH_NUMBER": null, "CATCHMENTP": null, "OWNER": "LCC", "STATUS": "Existing", "ProjectID": "LWAlliance CD00134 PBE032" }, "geometry": { "type": "Point", "coordinates": [ 153.180366285811346, -27.698286359270689, 0.0 ] } },
{ "type": "Feature", "properties": { "Asset_ID": "77751", "Assetic_As": "SPS040", "USE_": "Pump Station", "DIAMETER_m": 375, "INVERTLEVE": -999.0, "MH_NUMBER": null, "CATCHMENTP": null, "OWNER": "LCC", "STATUS": "Existing", "ProjectID": "DF" }, "geometry": { "type": "Point", "coordinates": [ 153.11606832725019, -27.63420192486414, 0.0 ] } },
{ "type": "Feature", "properties": { "Asset_ID": "77858", "Assetic_As": "SPS023", "USE_": "Pump Station", "DIAMETER_m": 150, "INVERTLEVE": -999.0, "MH_NUMBER": null, "CATCHMENTP": null, "OWNER": "LCC", "STATUS": "Existing", "ProjectID": "DF" }, "geometry": { "type": "Point", "coordinates": [ 153.202862057700202, -27.679760627843493, 0.0 ] } },
{ "type": "Feature", "properties": { "Asset_ID": "80813", "Assetic_As": "SPS056", "USE_": "Pump Station", "DIAMETER_m": 1050, "INVERTLEVE": -999.0, "MH_NUMBER": null, "CATCHMENTP": null, "OWNER": "LCC", "STATUS": "Existing", "ProjectID": "DF" }, "geometry": { "type": "Point", "coordinates": [ 153.151956501332933, -27.624711623940755, 0.0 ] } },
{ "type": "Feature", "properties": { "Asset_ID": "80814", "Assetic_As": "SPS048", "USE_": "Pump Station", "DIAMETER_m": 100, "INVERTLEVE": -999.0, "MH_NUMBER": "SPS048", "CATCHMENTP": null, "OWNER": "LCC", "STATUS": "Existing", "ProjectID": "DF" }, "geometry": { "type": "Point", "coordinates": [ 153.152100732052418, -27.625315835346882, 0.0 ] } },
{ "type": "Feature", "properties": { "Asset_ID": "82953", "Assetic_As": "SPS005", "USE_": "Pump Station", "DIAMETER_m": 150, "INVERTLEVE": 16.08, "MH_NUMBER": null, "CATCHMENTP": null, "OWNER": "LCC", "STATUS": "Existing", "ProjectID": "DF" }, "geometry": { "type": "Point", "coordinates": [ 153.119318476677023, -27.691548172980312, 0.0 ] } },
{ "type": "Feature", "properties": { "Asset_ID": "83026", "Assetic_As": "SPS027", "USE_": "Pump Station", "DIAMETER_m": 100, "INVERTLEVE": -999.0, "MH_NUMBER": null, "CATCHMENTP": null, "OWNER": "LCC", "STATUS": "Existing", "ProjectID": "DF" }, "geometry": { "type": "Point", "coordinates": [ 153.190892724306082, -27.691188754443164, 0.0 ] } },
{ "type": "Feature", "properties": { "Asset_ID": "85405", "Assetic_As": "SPS020", "USE_": "Pump Station", "DIAMETER_m": 150, "INVERTLEVE": -999.0, "MH_NUMBER": null, "CATCHMENTP": null, "OWNER": "LCC", "STATUS": "Existing", "ProjectID": "DF" }, "geometry": { "type": "Point", "coordinates": [ 153.143570196455585, -27.666692639655178, 0.0 ] } },
{ "type": "Feature", "properties": { "Asset_ID": "85753", "Assetic_As": "SPS038", "USE_": "Pump Station", "DIAMETER_m": 150, "INVERTLEVE": -999.0, "MH_NUMBER": null, "CATCHMENTP": null, "OWNER": "LCC", "STATUS": "Existing", "ProjectID": "LWAlliance CD00134 PBE032" }, "geometry": { "type": "Point", "coordinates": [ 153.161534092837513, -27.664079653420288, 0.0 ] } },
{ "type": "Feature", "properties": { "Asset_ID": "86324", "Assetic_As": "SPS025", "USE_": "Pump Station", "DIAMETER_m": 150, "INVERTLEVE": 17.175, "MH_NUMBER": null, "CATCHMENTP": null, "OWNER": "LCC", "STATUS": "Existing", "ProjectID": "LWAlliance CD00134 PBE032" }, "geometry": { "type": "Point", "coordinates": [ 153.178048637013376, -27.670334967821383, 0.0 ] } },
{ "type": "Feature", "properties": { "Asset_ID": "86431", "Assetic_As": "SPS028", "USE_": "Pump Station", "DIAMETER_m": 150, "INVERTLEVE": -999.0, "MH_NUMBER": null, "CATCHMENTP": null, "OWNER": "LCC", "STATUS": "Existing", "ProjectID": "LWAlliance CD00134 PBE032" }, "geometry": { "type": "Point", "coordinates": [ 153.182010080237546, -27.674777030809381, 0.0 ] } },
{ "type": "Feature", "properties": { "Asset_ID": "87877", "Assetic_As": "SPS006", "USE_": "Pump Station", "DIAMETER_m": 150, "INVERTLEVE": -999.0, "MH_NUMBER": null, "CATCHMENTP": null, "OWNER": "LCC", "STATUS": "Existing", "ProjectID": "DF" }, "geometry": { "type": "Point", "coordinates": [ 153.141377145089393, -27.689738661057859, 0.0 ] } },
{ "type": "Feature", "properties": { "Asset_ID": "88129", "Assetic_As": "SPS003", "USE_": "Pump Station", "DIAMETER_m": 1150, "INVERTLEVE": -999.0, "MH_NUMBER": null, "CATCHMENTP": null, "OWNER": "LCC", "STATUS": "Existing", "ProjectID": "DF" }, "geometry": { "type": "Point", "coordinates": [ 153.143098620985086, -27.702624104800975, 0.0 ] } },
{ "type": "Feature", "properties": { "Asset_ID": "88142", "Assetic_As": "SPS050", "USE_": "Pump Station", "DIAMETER_m": 1800, "INVERTLEVE": -999.0, "MH_NUMBER": null, "CATCHMENTP": null, "OWNER": "LCC", "STATUS": "Existing", "ProjectID": "DF" }, "geometry": { "type": "Point", "coordinates": [ 153.135415032565646, -27.697808373738233, 0.0 ] } },
{ "type": "Feature", "properties": { "Asset_ID": "88204", "Assetic_As": "SPS007", "USE_": "Pump Station", "DIAMETER_m": 1100, "INVERTLEVE": -999.0, "MH_NUMBER": null, "CATCHMENTP": null, "OWNER": "LCC", "STATUS": "Existing", "ProjectID": "DF" }, "geometry": { "type": "Point", "coordinates": [ 153.140762603316659, -27.704592233666094, 0.0 ] } },
{ "type": "Feature", "properties": { "Asset_ID": "88267", "Assetic_As": "SPS017", "USE_": "Pump Station", "DIAMETER_m": 150, "INVERTLEVE": -999.0, "MH_NUMBER": null, "CATCHMENTP": null, "OWNER": "LCC", "STATUS": "Existing", "ProjectID": "DF" }, "geometry": { "type": "Point", "coordinates": [ 153.175161405845472, -27.689459866553772, 0.0 ] } },
{ "type": "Feature", "properties": { "Asset_ID": "88954", "Assetic_As": "SPS055", "USE_": "Pump Station", "DIAMETER_m": 150, "INVERTLEVE": -999.0, "MH_NUMBER": null, "CATCHMENTP": null, "OWNER": "LCC", "STATUS": "Existing", "ProjectID": "LWAlliance CD00134 PBE032" }, "geometry": { "type": "Point", "coordinates": [ 153.019272891412896, -27.660805958131345, 0.0 ] } },
{ "type": "Feature", "properties": { "Asset_ID": "89361", "Assetic_As": "SPS044", "USE_": "Pump Station", "DIAMETER_m": 225, "INVERTLEVE": -999.0, "MH_NUMBER": null, "CATCHMENTP": null, "OWNER": "LCC", "STATUS": "Existing", "ProjectID": "DF" }, "geometry": { "type": "Point", "coordinates": [ 153.208466667027693, -27.674335324708139, 0.0 ] } },
{ "type": "Feature", "properties": { "Asset_ID": "90123", "Assetic_As": "SPS032", "USE_": "Pump Station", "DIAMETER_m": 150, "INVERTLEVE": -999.0, "MH_NUMBER": null, "CATCHMENTP": null, "OWNER": "LCC", "STATUS": "Existing", "ProjectID": "LWAlliance CD00134 PBE032" }, "geometry": { "type": "Point", "coordinates": [ 153.060336425303291, -27.657201554953737, 0.0 ] } },
{ "type": "Feature", "properties": { "Asset_ID": "90887", "Assetic_As": "SPS008", "USE_": "Pump Station", "DIAMETER_m": 150, "INVERTLEVE": -999.0, "MH_NUMBER": null, "CATCHMENTP": null, "OWNER": "LCC", "STATUS": "Existing", "ProjectID": "DF" }, "geometry": { "type": "Point", "coordinates": [ 153.211623283247746, -27.67093782167461, 0.0 ] } },
{ "type": "Feature", "properties": { "Asset_ID": "90888", "Assetic_As": "SPS010", "USE_": "Pump Station", "DIAMETER_m": 375, "INVERTLEVE": -999.0, "MH_NUMBER": null, "CATCHMENTP": null, "OWNER": "LCC", "STATUS": "Existing", "ProjectID": "DF" }, "geometry": { "type": "Point", "coordinates": [ 153.206248738055564, -27.665688134034117, 0.0 ] } },
{ "type": "Feature", "properties": { "Asset_ID": "91807", "Assetic_As": "SPS045", "USE_": "Pump Station", "DIAMETER_m": 150, "INVERTLEVE": 3.33, "MH_NUMBER": null, "CATCHMENTP": null, "OWNER": "LCC", "STATUS": "Existing", "ProjectID": "DF" }, "geometry": { "type": "Point", "coordinates": [ 153.208503040578819, -27.67883852107682, 0.0 ] } },
{ "type": "Feature", "properties": { "Asset_ID": "93155", "Assetic_As": "SPS029", "USE_": "Pump Station", "DIAMETER_m": 225, "INVERTLEVE": 90.95, "MH_NUMBER": null, "CATCHMENTP": null, "OWNER": "LCC", "STATUS": "Existing", "ProjectID": "DF" }, "geometry": { "type": "Point", "coordinates": [ 153.191941830959962, -27.641586448802421, 0.0 ] } },
{ "type": "Feature", "properties": { "Asset_ID": "93663", "Assetic_As": "SPS024", "USE_": "Pump Station", "DIAMETER_m": 225, "INVERTLEVE": -999.0, "MH_NUMBER": null, "CATCHMENTP": null, "OWNER": "LCC", "STATUS": "Existing", "ProjectID": "DF" }, "geometry": { "type": "Point", "coordinates": [ 153.170669504794233, -27.680022588962316, 0.0 ] } },
{ "type": "Feature", "properties": { "Asset_ID": "94389", "Assetic_As": "SPS049", "USE_": "Pump Station", "DIAMETER_m": 50, "INVERTLEVE": -999.0, "MH_NUMBER": null, "CATCHMENTP": null, "OWNER": "LCC", "STATUS": "Existing", "ProjectID": "DF" }, "geometry": { "type": "Point", "coordinates": [ 153.151221785510302, -27.623686358281326, 0.0 ] } },
{ "type": "Feature", "properties": { "Asset_ID": "94478", "Assetic_As": "ZPS30111", "USE_": "Pump Station", "DIAMETER_m": 100, "INVERTLEVE": -999.0, "MH_NUMBER": null, "CATCHMENTP": null, "OWNER": "P", "STATUS": "Existing", "ProjectID": "Private" }, "geometry": { "type": "Point", "coordinates": [ 153.029577496529896, -27.690630705035247, 0.0 ] } },
{ "type": "Feature", "properties": { "Asset_ID": "94912", "Assetic_As": "SPS054", "USE_": "Pump Station", "DIAMETER_m": 100, "INVERTLEVE": 6.07, "MH_NUMBER": null, "CATCHMENTP": null, "OWNER": "LCC", "STATUS": "Existing", "ProjectID": "DF" }, "geometry": { "type": "Point", "coordinates": [ 153.153114706013213, -27.67039360446519, 0.0 ] } },
{ "type": "Feature", "properties": { "Asset_ID": "94954", "Assetic_As": "ZPS30112", "USE_": "Pump Station", "DIAMETER_m": 1000, "INVERTLEVE": -999.0, "MH_NUMBER": null, "CATCHMENTP": null, "OWNER": "P", "STATUS": "Existing", "ProjectID": "Private" }, "geometry": { "type": "Point", "coordinates": [ 153.237607608312288, -27.682614541854861, 0.0 ] } },
{ "type": "Feature", "properties": { "Asset_ID": "95111", "Assetic_As": "SPS019", "USE_": "Pump Station", "DIAMETER_m": 2000, "INVERTLEVE": -999.0, "MH_NUMBER": null, "CATCHMENTP": null, "OWNER": "LCC", "STATUS": "Existing", "ProjectID": "DF" }, "geometry": { "type": "Point", "coordinates": [ 153.185272859195635, -27.697137307154335, 0.0 ] } },
{ "type": "Feature", "properties": { "Asset_ID": "95166", "Assetic_As": "SPS041", "USE_": "Pump Station", "DIAMETER_m": 150, "INVERTLEVE": -999.0, "MH_NUMBER": null, "CATCHMENTP": null, "OWNER": "LCC", "STATUS": "Existing", "ProjectID": "DF" }, "geometry": { "type": "Point", "coordinates": [ 153.142570827601389, -27.592575637367084, 0.0 ] } },
{ "type": "Feature", "properties": { "Asset_ID": "95360", "Assetic_As": "ZPS30113", "USE_": "Pump Station", "DIAMETER_m": 300, "INVERTLEVE": -999.0, "MH_NUMBER": null, "CATCHMENTP": null, "OWNER": "P", "STATUS": "Existing", "ProjectID": "Private" }, "geometry": { "type": "Point", "coordinates": [ 153.259682554621804, -27.645459920489255, 0.0 ] } },
{ "type": "Feature", "properties": { "Asset_ID": "95917", "Assetic_As": "SPS059", "USE_": "Pump Station", "DIAMETER_m": 300, "INVERTLEVE": -999.0, "MH_NUMBER": null, "CATCHMENTP": null, "OWNER": "LCC", "STATUS": "Existing", "ProjectID": "DF" }, "geometry": { "type": "Point", "coordinates": [ 153.107274091396562, -27.594151840119466, 0.0 ] } },
{ "type": "Feature", "properties": { "Asset_ID": "96331", "Assetic_As": "STP001", "USE_": "Other", "DIAMETER_m": 1, "INVERTLEVE": -999.0, "MH_NUMBER": null, "CATCHMENTP": null, "OWNER": "LCC", "STATUS": "Existing", "ProjectID": "DF" }, "geometry": { "type": "Point", "coordinates": [ 153.195039539879588, -27.684904430013276, 0.0 ] } },
{ "type": "Feature", "properties": { "Asset_ID": "96902", "Assetic_As": "SPS063", "USE_": "Pump Station", "DIAMETER_m": 1050, "INVERTLEVE": -999.0, "MH_NUMBER": null, "CATCHMENTP": null, "OWNER": "LCC", "STATUS": "Existing", "ProjectID": "DF" }, "geometry": { "type": "Point", "coordinates": [ 153.191643500176838, -27.700551389705236, 0.0 ] } },
{ "type": "Feature", "properties": { "Asset_ID": "97594", "Assetic_As": "SPS064", "USE_": "Pump Station", "DIAMETER_m": 1050, "INVERTLEVE": -999.0, "MH_NUMBER": null, "CATCHMENTP": null, "OWNER": "LCC", "STATUS": "Existing", "ProjectID": "QRP01" }, "geometry": { "type": "Point", "coordinates": [ 153.15482436688157, -27.67410359406032, 0.0 ] } },
{ "type": "Feature", "properties": { "Asset_ID": "97600", "Assetic_As": "SPS060", "USE_": "Pump Station", "DIAMETER_m": 1050, "INVERTLEVE": -999.0, "MH_NUMBER": null, "CATCHMENTP": null, "OWNER": "LCC", "STATUS": "Existing", "ProjectID": "DF" }, "geometry": { "type": "Point", "coordinates": [ 153.138264053512614, -27.645953288597909, 0.0 ] } },
{ "type": "Feature", "properties": { "Asset_ID": "97747", "Assetic_As": "SPS065", "USE_": "Pump Station", "DIAMETER_m": 1800, "INVERTLEVE": 5.225, "MH_NUMBER": null, "CATCHMENTP": null, "OWNER": "LCC", "STATUS": "Existing", "ProjectID": "VTB04" }, "geometry": { "type": "Point", "coordinates": [ 153.17935261743898, -27.715781526758533, 0.0 ] } },
{ "type": "Feature", "properties": { "Asset_ID": "98053", "Assetic_As": "SPS066", "USE_": "Pump Station", "DIAMETER_m": 1050, "INVERTLEVE": -999.0, "MH_NUMBER": null, "CATCHMENTP": null, "OWNER": "LCC", "STATUS": "Existing", "ProjectID": "DF" }, "geometry": { "type": "Point", "coordinates": [ 153.102832865380975, -27.616182977383378, 0.0 ] } },
{ "type": "Feature", "properties": { "Asset_ID": "98553", "Assetic_As": "ZPS30106", "USE_": "Pump Station", "DIAMETER_m": 1050, "INVERTLEVE": -999.0, "MH_NUMBER": null, "CATCHMENTP": null, "OWNER": "P", "STATUS": "Existing", "ProjectID": "Private" }, "geometry": { "type": "Point", "coordinates": [ 153.092990108751252, -27.617643550483905, 0.0 ] } },
{ "type": "Feature", "properties": { "Asset_ID": "98633", "Assetic_As": "SPS068", "USE_": "Pump Station", "DIAMETER_m": 1050, "INVERTLEVE": 9.786, "MH_NUMBER": null, "CATCHMENTP": null, "OWNER": "LCC", "STATUS": "Existing", "ProjectID": "WF3030" }, "geometry": { "type": "Point", "coordinates": [ 153.11785089904123, -27.678823583694545, 0.0 ] } },
{ "type": "Feature", "properties": { "Asset_ID": "100013", "Assetic_As": "SPS075", "USE_": "Pump Station", "DIAMETER_m": 150, "INVERTLEVE": 25.78, "MH_NUMBER": null, "CATCHMENTP": null, "OWNER": "LCC", "STATUS": "Existing", "ProjectID": "DF" }, "geometry": { "type": "Point", "coordinates": [ 153.027757713114227, -27.835095693391725, 0.0 ] } },
{ "type": "Feature", "properties": { "Asset_ID": "100184", "Assetic_As": "SPS074", "USE_": "Pump Station", "DIAMETER_m": 3000, "INVERTLEVE": 21.64, "MH_NUMBER": null, "CATCHMENTP": null, "OWNER": "LCC", "STATUS": "Existing", "ProjectID": "DF" }, "geometry": { "type": "Point", "coordinates": [ 153.031708977371977, -27.824652373365065, 0.0 ] } },
{ "type": "Feature", "properties": { "Asset_ID": "100212", "Assetic_As": "SPS077", "USE_": "Pump Station", "DIAMETER_m": 100, "INVERTLEVE": 25.3, "MH_NUMBER": null, "CATCHMENTP": null, "OWNER": "LCC", "STATUS": "Existing", "ProjectID": "DF" }, "geometry": { "type": "Point", "coordinates": [ 153.036060204088841, -27.828526034314606, 0.0 ] } },
{ "type": "Feature", "properties": { "Asset_ID": "100310", "Assetic_As": "SPS110", "USE_": "Pump Station", "DIAMETER_m": 2000, "INVERTLEVE": 0.45, "MH_NUMBER": null, "CATCHMENTP": null, "OWNER": "LCC", "STATUS": "Existing", "ProjectID": "DF" }, "geometry": { "type": "Point", "coordinates": [ 153.146320527579832, -27.695535883729672, 0.0 ] } },
{ "type": "Feature", "properties": { "Asset_ID": "100384", "Assetic_As": "SPS139", "USE_": "Pump Station", "DIAMETER_m": 1800, "INVERTLEVE": 6.26, "MH_NUMBER": null, "CATCHMENTP": null, "OWNER": "LCC", "STATUS": "Existing", "ProjectID": "LWAlliance CD00134 PBE032" }, "geometry": { "type": "Point", "coordinates": [ 153.151558368408899, -27.679518959351888, 0.0 ] } },
{ "type": "Feature", "properties": { "Asset_ID": "100439", "Assetic_As": "SPS117", "USE_": "Pump Station", "DIAMETER_m": 1700, "INVERTLEVE": 3.29, "MH_NUMBER": null, "CATCHMENTP": null, "OWNER": "LCC", "STATUS": "Existing", "ProjectID": "DF" }, "geometry": { "type": "Point", "coordinates": [ 153.146005402144141, -27.681700939977517, 0.0 ] } },
{ "type": "Feature", "properties": { "Asset_ID": "100552", "Assetic_As": "SPS114", "USE_": "Pump Station", "DIAMETER_m": 1800, "INVERTLEVE": 1.84, "MH_NUMBER": null, "CATCHMENTP": null, "OWNER": "LCC", "STATUS": "Existing", "ProjectID": "PBE065" }, "geometry": { "type": "Point", "coordinates": [ 153.150357459315217, -27.690662896067636, 0.0 ] } },
{ "type": "Feature", "properties": { "Asset_ID": "100757", "Assetic_As": "SPS138", "USE_": "Pump Station", "DIAMETER_m": 1700, "INVERTLEVE": 6.11, "MH_NUMBER": null, "CATCHMENTP": null, "OWNER": "LCC", "STATUS": "Existing", "ProjectID": "DF" }, "geometry": { "type": "Point", "coordinates": [ 153.152763577194833, -27.682868369083376, 0.0 ] } },
{ "type": "Feature", "properties": { "Asset_ID": "100826", "Assetic_As": "SPS135", "USE_": "Pump Station", "DIAMETER_m": 200, "INVERTLEVE": 3.37, "MH_NUMBER": null, "CATCHMENTP": null, "OWNER": "LCC", "STATUS": "Existing", "ProjectID": "DF" }, "geometry": { "type": "Point", "coordinates": [ 153.156170876759745, -27.686218570361902, 0.0 ] } },
{ "type": "Feature", "properties": { "Asset_ID": "100850", "Assetic_As": "SPS104", "USE_": "Pump Station", "DIAMETER_m": 1800, "INVERTLEVE": -1.67, "MH_NUMBER": null, "CATCHMENTP": null, "OWNER": "LCC", "STATUS": "Existing", "ProjectID": "DF" }, "geometry": { "type": "Point", "coordinates": [ 153.199464833222777, -27.698900184282625, 0.0 ] } },
{ "type": "Feature", "properties": { "Asset_ID": "101217", "Assetic_As": "SPS113", "USE_": "Pump Station", "DIAMETER_m": 2400, "INVERTLEVE": 2.45, "MH_NUMBER": null, "CATCHMENTP": null, "OWNER": "LCC", "STATUS": "Existing", "ProjectID": "DN7012" }, "geometry": { "type": "Point", "coordinates": [ 153.169730748545902, -27.699208962084516, 0.0 ] } },
{ "type": "Feature", "properties": { "Asset_ID": "101538", "Assetic_As": "SPS142", "USE_": "Pump Station", "DIAMETER_m": 1800, "INVERTLEVE": -0.7, "MH_NUMBER": null, "CATCHMENTP": null, "OWNER": "LCC", "STATUS": "Existing", "ProjectID": "DF" }, "geometry": { "type": "Point", "coordinates": [ 153.201084893282712, -27.69539491615809, 0.0 ] } },
{ "type": "Feature", "properties": { "Asset_ID": "101611", "Assetic_As": "SPS112", "USE_": "Pump Station", "DIAMETER_m": 2100, "INVERTLEVE": -2.43, "MH_NUMBER": null, "CATCHMENTP": null, "OWNER": "LCC", "STATUS": "Existing", "ProjectID": "DF" }, "geometry": { "type": "Point", "coordinates": [ 153.214976563018581, -27.687065616898181, 0.0 ] } },
{ "type": "Feature", "properties": { "Asset_ID": "101636", "Assetic_As": "SPS136", "USE_": "Pump Station", "DIAMETER_m": 1800, "INVERTLEVE": -0.1, "MH_NUMBER": null, "CATCHMENTP": null, "OWNER": "LCC", "STATUS": "Existing", "ProjectID": "DF" }, "geometry": { "type": "Point", "coordinates": [ 153.210789557961363, -27.691809952748812, 0.0 ] } },
{ "type": "Feature", "properties": { "Asset_ID": "102372", "Assetic_As": "SPS128", "USE_": "Pump Station", "DIAMETER_m": 1800, "INVERTLEVE": 2.2, "MH_NUMBER": null, "CATCHMENTP": null, "OWNER": "LCC", "STATUS": "Existing", "ProjectID": "DF" }, "geometry": { "type": "Point", "coordinates": [ 153.198291032415995, -27.706276224503277, 0.0 ] } },
{ "type": "Feature", "properties": { "Asset_ID": "102721", "Assetic_As": "SPS127", "USE_": "Pump Station", "DIAMETER_m": 1800, "INVERTLEVE": -0.24, "MH_NUMBER": null, "CATCHMENTP": null, "OWNER": "LCC", "STATUS": "Existing", "ProjectID": "PBE026" }, "geometry": { "type": "Point", "coordinates": [ 153.195908991903536, -27.70106609568645, 0.0 ] } },
{ "type": "Feature", "properties": { "Asset_ID": "102970", "Assetic_As": "SPS129", "USE_": "Pump Station", "DIAMETER_m": 1800, "INVERTLEVE": 1.04, "MH_NUMBER": null, "CATCHMENTP": null, "OWNER": "LCC", "STATUS": "Existing", "ProjectID": "DF" }, "geometry": { "type": "Point", "coordinates": [ 153.211264503185362, -27.713313702442342, 0.0 ] } },
{ "type": "Feature", "properties": { "Asset_ID": "103059", "Assetic_As": "SPS131", "USE_": "Pump Station", "DIAMETER_m": 1800, "INVERTLEVE": 1.28, "MH_NUMBER": null, "CATCHMENTP": null, "OWNER": "LCC", "STATUS": "Existing", "ProjectID": "DF" }, "geometry": { "type": "Point", "coordinates": [ 153.229058694734647, -27.70469543071739, 0.0 ] } },
{ "type": "Feature", "properties": { "Asset_ID": "104097", "Assetic_As": "SPS119", "USE_": "Pump Station", "DIAMETER_m": 1700, "INVERTLEVE": 1.7, "MH_NUMBER": null, "CATCHMENTP": null, "OWNER": "LCC", "STATUS": "Existing", "ProjectID": "DF" }, "geometry": { "type": "Point", "coordinates": [ 153.224072277121223, -27.710959296947554, 0.0 ] } },
{ "type": "Feature", "properties": { "Asset_ID": "104637", "Assetic_As": "SPS145", "USE_": "Pump Station", "DIAMETER_m": 2000, "INVERTLEVE": 12.03, "MH_NUMBER": null, "CATCHMENTP": null, "OWNER": "LCC", "STATUS": "Existing", "ProjectID": "DF" }, "geometry": { "type": "Point", "coordinates": [ 153.217296367480657, -27.724714393598081, 0.0 ] } },
{ "type": "Feature", "properties": { "Asset_ID": "104664", "Assetic_As": "SPS124", "USE_": "Pump Station", "DIAMETER_m": 2000, "INVERTLEVE": 1.8, "MH_NUMBER": null, "CATCHMENTP": null, "OWNER": "LCC", "STATUS": "Existing", "ProjectID": "DF" }, "geometry": { "type": "Point", "coordinates": [ 153.211889168569655, -27.732666275853454, 0.0 ] } },
{ "type": "Feature", "properties": { "Asset_ID": "104858", "Assetic_As": "SPS140", "USE_": "Pump Station", "DIAMETER_m": 2400, "INVERTLEVE": 3.0, "MH_NUMBER": null, "CATCHMENTP": null, "OWNER": "LCC", "STATUS": "Existing", "ProjectID": "DF" }, "geometry": { "type": "Point", "coordinates": [ 153.196553960804266, -27.742056108893269, 0.0 ] } },
{ "type": "Feature", "properties": { "Asset_ID": "105144", "Assetic_As": "SPS143", "USE_": "Pump Station", "DIAMETER_m": 2000, "INVERTLEVE": 3.93, "MH_NUMBER": null, "CATCHMENTP": null, "OWNER": "LCC", "STATUS": "Existing", "ProjectID": "7639-001" }, "geometry": { "type": "Point", "coordinates": [ 153.202530336920091, -27.738346512497543, 0.0 ] } },
{ "type": "Feature", "properties": { "Asset_ID": "105282", "Assetic_As": "SPS107", "USE_": "Pump Station", "DIAMETER_m": 2400, "INVERTLEVE": 5.47, "MH_NUMBER": null, "CATCHMENTP": null, "OWNER": "LCC", "STATUS": "Existing", "ProjectID": "LWAlliance CD00130 PBE038-01" }, "geometry": { "type": "Point", "coordinates": [ 153.192438681797313, -27.74738141861755, 0.0 ] } },
{ "type": "Feature", "properties": { "Asset_ID": "105392", "Assetic_As": "SPS115", "USE_": "Pump Station", "DIAMETER_m": 2500, "INVERTLEVE": 4.44, "MH_NUMBER": null, "CATCHMENTP": null, "OWNER": "LCC", "STATUS": "Existing", "ProjectID": "DF" }, "geometry": { "type": "Point", "coordinates": [ 153.177569436636986, -27.703375462839738, 0.0 ] } },
{ "type": "Feature", "properties": { "Asset_ID": "105472", "Assetic_As": "SPS126", "USE_": "Pump Station", "DIAMETER_m": 2000, "INVERTLEVE": 3.02, "MH_NUMBER": null, "CATCHMENTP": null, "OWNER": "LCC", "STATUS": "Existing", "ProjectID": "DF" }, "geometry": { "type": "Point", "coordinates": [ 153.199180675521063, -27.734390932342915, 0.0 ] } },
{ "type": "Feature", "properties": { "Asset_ID": "106485", "Assetic_As": "SPS121", "USE_": "Pump Station", "DIAMETER_m": 2100, "INVERTLEVE": -999.0, "MH_NUMBER": null, "CATCHMENTP": null, "OWNER": "LCC", "STATUS": "Existing", "ProjectID": "DF" }, "geometry": { "type": "Point", "coordinates": [ 153.167151691275222, -27.710391749882472, 0.0 ] } },
{ "type": "Feature", "properties": { "Asset_ID": "106486", "Assetic_As": "SPS102", "USE_": "Pump Station", "DIAMETER_m": 2500, "INVERTLEVE": 5.14, "MH_NUMBER": null, "CATCHMENTP": null, "OWNER": "LCC", "STATUS": "Existing", "ProjectID": "DF" }, "geometry": { "type": "Point", "coordinates": [ 153.194873310586132, -27.752889510345209, 0.0 ] } },
{ "type": "Feature", "properties": { "Asset_ID": "106488", "Assetic_As": "SPS132", "USE_": "Pump Station", "DIAMETER_m": 2000, "INVERTLEVE": 5.5, "MH_NUMBER": null, "CATCHMENTP": null, "OWNER": "LCC", "STATUS": "Existing", "ProjectID": "DF" }, "geometry": { "type": "Point", "coordinates": [ 153.176327215298585, -27.699741452063137, 0.0 ] } },
{ "type": "Feature", "properties": { "Asset_ID": "106621", "Assetic_As": "SPS101", "USE_": "Pump Station", "DIAMETER_m": 100, "INVERTLEVE": 3.93, "MH_NUMBER": null, "CATCHMENTP": null, "OWNER": "LCC", "STATUS": "Existing", "ProjectID": "DF" }, "geometry": { "type": "Point", "coordinates": [ 153.189568991754072, -27.737202138641688, 0.0 ] } },
{ "type": "Feature", "properties": { "Asset_ID": "107424", "Assetic_As": "SPS108", "USE_": "Pump Station", "DIAMETER_m": 375, "INVERTLEVE": 5.54, "MH_NUMBER": null, "CATCHMENTP": null, "OWNER": "LCC", "STATUS": "Existing", "ProjectID": "WA21" }, "geometry": { "type": "Point", "coordinates": [ 153.162750773202077, -27.695390419340519, 0.0 ] } },
{ "type": "Feature", "properties": { "Asset_ID": "107469", "Assetic_As": "ZPS30126", "USE_": "Pump Station", "DIAMETER_m": 0, "INVERTLEVE": -999.0, "MH_NUMBER": null, "CATCHMENTP": null, "OWNER": "P", "STATUS": "Existing", "ProjectID": "Private" }, "geometry": { "type": "Point", "coordinates": [ 153.222868320939597, -27.722891351542543, 0.0 ] } },
{ "type": "Feature", "properties": { "Asset_ID": "107471", "Assetic_As": "ZPS30117", "USE_": "Pump Station", "DIAMETER_m": 0, "INVERTLEVE": -999.0, "MH_NUMBER": null, "CATCHMENTP": null, "OWNER": "P", "STATUS": "Existing", "ProjectID": "Private" }, "geometry": { "type": "Point", "coordinates": [ 153.179176990683487, -27.713730612586836, 0.0 ] } },
{ "type": "Feature", "properties": { "Asset_ID": "107472", "Assetic_As": "ZPS30118", "USE_": "Pump Station", "DIAMETER_m": 0, "INVERTLEVE": -999.0, "MH_NUMBER": null, "CATCHMENTP": null, "OWNER": "P", "STATUS": "Existing", "ProjectID": "Private" }, "geometry": { "type": "Point", "coordinates": [ 153.213715376943526, -27.725635363282613, 0.0 ] } },
{ "type": "Feature", "properties": { "Asset_ID": "107477", "Assetic_As": "ZPS30124", "USE_": "Pump Station", "DIAMETER_m": 0, "INVERTLEVE": -999.0, "MH_NUMBER": null, "CATCHMENTP": null, "OWNER": "P", "STATUS": "Existing", "ProjectID": "Private" }, "geometry": { "type": "Point", "coordinates": [ 153.193893674633301, -27.709291567635965, 0.0 ] } },
{ "type": "Feature", "properties": { "Asset_ID": "107479", "Assetic_As": "STP002", "USE_": "Other", "DIAMETER_m": 9500, "INVERTLEVE": -999.0, "MH_NUMBER": null, "CATCHMENTP": null, "OWNER": "LCC", "STATUS": "Existing", "ProjectID": "DF" }, "geometry": { "type": "Point", "coordinates": [ 153.227770545101436, -27.710517766972288, 0.0 ] } },
{ "type": "Feature", "properties": { "Asset_ID": "107480", "Assetic_As": "STP003", "USE_": "Other", "DIAMETER_m": 300, "INVERTLEVE": -999.0, "MH_NUMBER": null, "CATCHMENTP": null, "OWNER": "LCC", "STATUS": "Existing", "ProjectID": "DF" }, "geometry": { "type": "Point", "coordinates": [ 153.022518729583396, -27.82369366271756, 0.0 ] } },
{ "type": "Feature", "properties": { "Asset_ID": "107482", "Assetic_As": "SPS076", "USE_": "Pump Station", "DIAMETER_m": 1800, "INVERTLEVE": -999.0, "MH_NUMBER": null, "CATCHMENTP": null, "OWNER": "LCC", "STATUS": "Existing", "ProjectID": "SPS76" }, "geometry": { "type": "Point", "coordinates": [ 153.036865802551318, -27.832271002395565, 0.0 ] } },
{ "type": "Feature", "properties": { "Asset_ID": "107928", "Assetic_As": "ZPS30127", "USE_": "Pump Station", "DIAMETER_m": 0, "INVERTLEVE": -999.0, "MH_NUMBER": null, "CATCHMENTP": null, "OWNER": "P", "STATUS": "Existing", "ProjectID": "Private" }, "geometry": { "type": "Point", "coordinates": [ 152.966483240944996, -27.815574294798303, 0.0 ] } },
{ "type": "Feature", "properties": { "Asset_ID": "108220", "Assetic_As": "SPS105", "USE_": "Pump Station", "DIAMETER_m": 2400, "INVERTLEVE": -999.0, "MH_NUMBER": null, "CATCHMENTP": null, "OWNER": "LCC", "STATUS": "Existing", "ProjectID": "DF" }, "geometry": { "type": "Point", "coordinates": [ 153.144662501734047, -27.711511822561611, 0.0 ] } },
{ "type": "Feature", "properties": { "Asset_ID": "108524", "Assetic_As": "SPS080", "USE_": "Pump Station", "DIAMETER_m": 1800, "INVERTLEVE": -999.0, "MH_NUMBER": null, "CATCHMENTP": null, "OWNER": "LCC", "STATUS": "Existing", "ProjectID": "OW/122/2008" }, "geometry": { "type": "Point", "coordinates": [ 153.025956345206566, -27.836113843560586, 0.0 ] } },
{ "type": "Feature", "properties": { "Asset_ID": "108676", "Assetic_As": "SPS123", "USE_": "Pump Station", "DIAMETER_m": 2400, "INVERTLEVE": -999.0, "MH_NUMBER": null, "CATCHMENTP": null, "OWNER": "LCC", "STATUS": "Existing", "ProjectID": "DF" }, "geometry": { "type": "Point", "coordinates": [ 153.219683973224392, -27.692203739154756, 0.0 ] } },
{ "type": "Feature", "properties": { "Asset_ID": "109818", "Assetic_As": "ZPS30129", "USE_": "Pump Station", "DIAMETER_m": 1800, "INVERTLEVE": -999.0, "MH_NUMBER": null, "CATCHMENTP": null, "OWNER": "P", "STATUS": "Existing", "ProjectID": "Private" }, "geometry": { "type": "Point", "coordinates": [ 153.035327414571753, -27.715627076880018, 0.0 ] } },
{ "type": "Feature", "properties": { "Asset_ID": "109861", "Assetic_As": "SPS069", "USE_": "Pump Station", "DIAMETER_m": 4500, "INVERTLEVE": -999.0, "MH_NUMBER": null, "CATCHMENTP": null, "OWNER": "LCC", "STATUS": "Existing", "ProjectID": "MWH" }, "geometry": { "type": "Point", "coordinates": [ 153.160147640519767, -27.652936055717266, 0.0 ] } },
{ "type": "Feature", "properties": { "Asset_ID": "110050", "Assetic_As": "SPS116", "USE_": "Pump Station", "DIAMETER_m": 2100, "INVERTLEVE": 12.37, "MH_NUMBER": null, "CATCHMENTP": null, "OWNER": "LCC", "STATUS": "Existing", "ProjectID": "DF" }, "geometry": { "type": "Point", "coordinates": [ 153.188929409611518, -27.756597530618443, 0.0 ] } },
{ "type": "Feature", "properties": { "Asset_ID": "110164", "Assetic_As": "SPS120", "USE_": "Pump Station", "DIAMETER_m": 2400, "INVERTLEVE": -999.0, "MH_NUMBER": null, "CATCHMENTP": null, "OWNER": "LCC", "STATUS": "Existing", "ProjectID": "DN7002-02" }, "geometry": { "type": "Point", "coordinates": [ 153.148343009060198, -27.717807477910704, 0.0 ] } },
{ "type": "Feature", "properties": { "Asset_ID": "110599", "Assetic_As": "SPS046", "USE_": "Pump Station", "DIAMETER_m": 0, "INVERTLEVE": -999.0, "MH_NUMBER": null, "CATCHMENTP": null, "OWNER": "LCC", "STATUS": "Existing", "ProjectID": "LWAlliance" }, "geometry": { "type": "Point", "coordinates": [ 153.141432036708096, -27.599667791862416, 0.0 ] } },
{ "type": "Feature", "properties": { "Asset_ID": "110662", "Assetic_As": "ZPS30130", "USE_": "Pump Station", "DIAMETER_m": 225, "INVERTLEVE": -999.0, "MH_NUMBER": null, "CATCHMENTP": null, "OWNER": "P", "STATUS": "Existing", "ProjectID": "Private" }, "geometry": { "type": "Point", "coordinates": [ 153.016416212088927, -27.81765994178981, 0.0 ] } },
{ "type": "Feature", "properties": { "Asset_ID": "110664", "Assetic_As": "ZPS30131", "USE_": "Pump Station", "DIAMETER_m": -999, "INVERTLEVE": -999.0, "MH_NUMBER": null, "CATCHMENTP": null, "OWNER": "P", "STATUS": "Existing", "ProjectID": "Private" }, "geometry": { "type": "Point", "coordinates": [ 153.024298258500721, -27.825327643153834, 0.0 ] } },
{ "type": "Feature", "properties": { "Asset_ID": "110757", "Assetic_As": "SPS082", "USE_": "Pump Station", "DIAMETER_m": 200, "INVERTLEVE": 13.91, "MH_NUMBER": null, "CATCHMENTP": null, "OWNER": "LCC", "STATUS": "Existing", "ProjectID": "LWAlliance" }, "geometry": { "type": "Point", "coordinates": [ 153.092300474874577, -27.715263235466161, 0.0 ] } },
{ "type": "Feature", "properties": { "Asset_ID": "110948", "Assetic_As": "SPS106", "USE_": "Pump Station", "DIAMETER_m": 900, "INVERTLEVE": -999.0, "MH_NUMBER": null, "CATCHMENTP": null, "OWNER": "LCC", "STATUS": "Existing", "ProjectID": "GCCCAlliance" }, "geometry": { "type": "Point", "coordinates": [ 153.211635001647693, -27.724804846678936, 0.0 ] } },
{ "type": "Feature", "properties": { "Asset_ID": "111774", "Assetic_As": "SPS158", "USE_": "Pump Station", "DIAMETER_m": 100, "INVERTLEVE": -999.0, "MH_NUMBER": null, "CATCHMENTP": null, "OWNER": "LCC", "STATUS": "Existing", "ProjectID": "LWAlliance" }, "geometry": { "type": "Point", "coordinates": [ 153.022393511048449, -27.824298223225409, 0.0 ] } },
{ "type": "Feature", "properties": { "Asset_ID": "111779", "Assetic_As": "SPS159", "USE_": "Pump Station", "DIAMETER_m": 150, "INVERTLEVE": -999.0, "MH_NUMBER": null, "CATCHMENTP": null, "OWNER": "LCC", "STATUS": "Existing", "ProjectID": "DF" }, "geometry": { "type": "Point", "coordinates": [ 153.195092120844237, -27.684376976041463, 0.0 ] } },
{ "type": "Feature", "properties": { "Asset_ID": "112067", "Assetic_As": "SPS144", "USE_": "Pump Station", "DIAMETER_m": 2100, "INVERTLEVE": -999.0, "MH_NUMBER": null, "CATCHMENTP": null, "OWNER": "LCC", "STATUS": "Existing", "ProjectID": "OW/206/2010/A36" }, "geometry": { "type": "Point", "coordinates": [ 153.164945358061289, -27.690634323580603, 0.0 ] } },
{ "type": "Feature", "properties": { "Asset_ID": "112143", "Assetic_As": "ZPS30134", "USE_": "Pump Station", "DIAMETER_m": 1800, "INVERTLEVE": -999.0, "MH_NUMBER": null, "CATCHMENTP": null, "OWNER": "P", "STATUS": "Existing", "ProjectID": "Private" }, "geometry": { "type": "Point", "coordinates": [ 153.11074878699921, -27.764556001996596, 0.0 ] } },
{ "type": "Feature", "properties": { "Asset_ID": "112160", "Assetic_As": "ZPS30135", "USE_": "Pump Station", "DIAMETER_m": 100, "INVERTLEVE": -999.0, "MH_NUMBER": null, "CATCHMENTP": null, "OWNER": "P", "STATUS": "Existing", "ProjectID": "Private" }, "geometry": { "type": "Point", "coordinates": [ 153.219269452324596, -27.674471785253807, 0.0 ] } },
{ "type": "Feature", "properties": { "Asset_ID": "112861", "Assetic_As": "ZPS30136", "USE_": "Pump Station", "DIAMETER_m": 150, "INVERTLEVE": -999.0, "MH_NUMBER": null, "CATCHMENTP": null, "OWNER": "P", "STATUS": "Existing", "ProjectID": "Private" }, "geometry": { "type": "Point", "coordinates": [ 153.1611506948299, -27.688310392843327, 0.0 ] } },
{ "type": "Feature", "properties": { "Asset_ID": "112927", "Assetic_As": "ZPS30137", "USE_": "Pump Station", "DIAMETER_m": 150, "INVERTLEVE": -999.0, "MH_NUMBER": null, "CATCHMENTP": null, "OWNER": "P", "STATUS": "Existing", "ProjectID": "Private" }, "geometry": { "type": "Point", "coordinates": [ 153.159674604527225, -27.686575799139217, 0.0 ] } },
{ "type": "Feature", "properties": { "Asset_ID": "113044", "Assetic_As": "ZPS30138", "USE_": "Pump Station", "DIAMETER_m": 150, "INVERTLEVE": -999.0, "MH_NUMBER": null, "CATCHMENTP": null, "OWNER": "P", "STATUS": "Existing", "ProjectID": "Private" }, "geometry": { "type": "Point", "coordinates": [ 153.122673871348098, -27.584595094308298, 0.0 ] } },
{ "type": "Feature", "properties": { "Asset_ID": "113122", "Assetic_As": "ZPS30139", "USE_": "Pump Station", "DIAMETER_m": 150, "INVERTLEVE": -999.0, "MH_NUMBER": null, "CATCHMENTP": null, "OWNER": "P", "STATUS": "Existing", "ProjectID": "Private" }, "geometry": { "type": "Point", "coordinates": [ 153.122091691494347, -27.585629173628522, 0.0 ] } },
{ "type": "Feature", "properties": { "Asset_ID": "113123", "Assetic_As": "ZPS30140", "USE_": "Pump Station", "DIAMETER_m": 150, "INVERTLEVE": -999.0, "MH_NUMBER": null, "CATCHMENTP": null, "OWNER": "P", "STATUS": "Existing", "ProjectID": "Private" }, "geometry": { "type": "Point", "coordinates": [ 153.122935591588089, -27.583891196848288, 0.0 ] } },
{ "type": "Feature", "properties": { "Asset_ID": "113146", "Assetic_As": "SPS085", "USE_": "Pump Station", "DIAMETER_m": 1800, "INVERTLEVE": -999.0, "MH_NUMBER": null, "CATCHMENTP": null, "OWNER": "LCC", "STATUS": "Existing", "ProjectID": "7712-001" }, "geometry": { "type": "Point", "coordinates": [ 153.19272836542396, -27.690266162540066, 0.0 ] } },
{ "type": "Feature", "properties": { "Asset_ID": "113975", "Assetic_As": "SPS100", "USE_": "Pump Station", "DIAMETER_m": 3200, "INVERTLEVE": 2.1, "MH_NUMBER": null, "CATCHMENTP": null, "OWNER": "LCC", "STATUS": "Existing", "ProjectID": "DF" }, "geometry": { "type": "Point", "coordinates": [ 153.20378430469006, -27.712362787618243, 0.0 ] } },
{ "type": "Feature", "properties": { "Asset_ID": "115363", "Assetic_As": "ZPS30142", "USE_": "Pump Station", "DIAMETER_m": 150, "INVERTLEVE": -999.0, "MH_NUMBER": null, "CATCHMENTP": null, "OWNER": "P", "STATUS": "Existing", "ProjectID": "OW/365/2015" }, "geometry": { "type": "Point", "coordinates": [ 153.187301516623364, -27.741338143178904, 0.0 ] } },
{ "type": "Feature", "properties": { "Asset_ID": "115544", "Assetic_As": "ZPS30143", "USE_": "Pump Station", "DIAMETER_m": 150, "INVERTLEVE": -999.0, "MH_NUMBER": null, "CATCHMENTP": null, "OWNER": "P", "STATUS": "Existing", "ProjectID": "DF" }, "geometry": { "type": "Point", "coordinates": [ 153.082049733092248, -27.711214132898803, 0.0 ] } },
{ "type": "Feature", "properties": { "Asset_ID": "115749", "Assetic_As": "ZPS30144", "USE_": "Pump Station", "DIAMETER_m": 1050, "INVERTLEVE": 16.93, "MH_NUMBER": null, "CATCHMENTP": null, "OWNER": "P", "STATUS": "Existing", "ProjectID": "OW/242/2015" }, "geometry": { "type": "Point", "coordinates": [ 153.104533723964011, -27.765236508201358, 0.0 ] } },
{ "type": "Feature", "properties": { "Asset_ID": "115935", "Assetic_As": "ZPS30145", "USE_": "Pump Station", "DIAMETER_m": 2400, "INVERTLEVE": -999.0, "MH_NUMBER": null, "CATCHMENTP": null, "OWNER": "P", "STATUS": "Existing", "ProjectID": null }, "geometry": { "type": "Point", "coordinates": [ 153.010743179825312, -27.68514923594055, 0.0 ] } },
{ "type": "Feature", "properties": { "Asset_ID": "115936", "Assetic_As": "ZPS30146", "USE_": "Pump Station", "DIAMETER_m": 2100, "INVERTLEVE": -999.0, "MH_NUMBER": null, "CATCHMENTP": null, "OWNER": "P", "STATUS": "Existing", "ProjectID": null }, "geometry": { "type": "Point", "coordinates": [ 153.009183546758379, -27.684487570025006, 0.0 ] } },
{ "type": "Feature", "properties": { "Asset_ID": "115944", "Assetic_As": "ZPS30147", "USE_": "Pump Station", "DIAMETER_m": 1050, "INVERTLEVE": -999.0, "MH_NUMBER": null, "CATCHMENTP": null, "OWNER": "P", "STATUS": "Existing", "ProjectID": null }, "geometry": { "type": "Point", "coordinates": [ 153.149924165959419, -27.637974361722915, 0.0 ] } },
{ "type": "Feature", "properties": { "Asset_ID": "259767", "Assetic_As": "SPS125", "USE_": "Pump Station", "DIAMETER_m": 2100, "INVERTLEVE": 1.65, "MH_NUMBER": null, "CATCHMENTP": null, "OWNER": "LCC", "STATUS": "Existing", "ProjectID": "DF" }, "geometry": { "type": "Point", "coordinates": [ 153.21181048762719, -27.734938724527542, 0.0 ] } },
{ "type": "Feature", "properties": { "Asset_ID": "260982", "Assetic_As": "SPS087", "USE_": "Pump Station", "DIAMETER_m": 2400, "INVERTLEVE": 21.59, "MH_NUMBER": "PS/TS2", "CATCHMENTP": null, "OWNER": "LCC", "STATUS": "Existing", "ProjectID": "DEV2015/667_Yarrabilba Precinct 2" }, "geometry": { "type": "Point", "coordinates": [ 153.121347316256191, -27.803739997223985, 28.020000000004075 ] } },
{ "type": "Feature", "properties": { "Asset_ID": "263916", "Assetic_As": "SPS016", "USE_": "Pump Station", "DIAMETER_m": 4000, "INVERTLEVE": 1.45, "MH_NUMBER": "SPS29379", "CATCHMENTP": null, "OWNER": "LCC", "STATUS": "Existing", "ProjectID": "LWAlliance CD00107 PBE012-01" }, "geometry": { "type": "Point", "coordinates": [ 153.136580249393774, -27.673665564697487, 9.490000000005239 ] } },
{ "type": "Feature", "properties": { "Asset_ID": "286088", "Assetic_As": "SPS156", "USE_": "Pump Station", "DIAMETER_m": 4050, "INVERTLEVE": 36.44, "MH_NUMBER": null, "CATCHMENTP": null, "OWNER": "LCC", "STATUS": "Existing", "ProjectID": "LWAlliance LS305-01" }, "geometry": { "type": "Point", "coordinates": [ 152.993166850241352, -27.741918420386668, 0.0 ] } },
{ "type": "Feature", "properties": { "Asset_ID": "286087", "Assetic_As": "SPS090", "USE_": "Pump Station", "DIAMETER_m": 3500, "INVERTLEVE": 0.0, "MH_NUMBER": null, "CATCHMENTP": null, "OWNER": "LCC", "STATUS": "Existing", "ProjectID": null }, "geometry": { "type": "Point", "coordinates": [ 153.056085475389352, -27.69254771815724, 0.0 ] } },
{ "type": "Feature", "properties": { "Asset_ID": "501429", "Assetic_As": "SPS163", "USE_": "Pump Station", "DIAMETER_m": 3000, "INVERTLEVE": 46.22, "MH_NUMBER": "1/1", "CATCHMENTP": null, "OWNER": "LCC", "STATUS": "Existing", "ProjectID": "DEV2012/284" }, "geometry": { "type": "Point", "coordinates": [ 152.97543910770392, -27.726827358506522, 0.0 ] } },
{ "type": "Feature", "properties": { "Asset_ID": "584055", "Assetic_As": "SPS157", "USE_": "Pump Station", "DIAMETER_m": 5000, "INVERTLEVE": 48.02, "MH_NUMBER": null, "CATCHMENTP": null, "OWNER": "LCC", "STATUS": "Existing", "ProjectID": "LWAlliance LS305-04" }, "geometry": { "type": "Point", "coordinates": [ 152.963561365132932, -27.767882321742984, 0.0 ] } },
{ "type": "Feature", "properties": { "Asset_ID": "599793", "Assetic_As": "ZPS30154", "USE_": "Pump Station", "DIAMETER_m": 0, "INVERTLEVE": -999.0, "MH_NUMBER": null, "CATCHMENTP": null, "OWNER": "P", "STATUS": "Existing", "ProjectID": "ZPS30154" }, "geometry": { "type": "Point", "coordinates": [ 153.154628745348759, -27.681021436205491, 0.0 ] } },
{ "type": "Feature", "properties": { "Asset_ID": "664752", "Assetic_As": "SPS166", "USE_": "Pump Station", "DIAMETER_m": 3000, "INVERTLEVE": 12.19, "MH_NUMBER": "SPS166", "CATCHMENTP": null, "OWNER": "LCC", "STATUS": "Existing", "ProjectID": "DT0006" }, "geometry": { "type": "Point", "coordinates": [ 153.086716228028422, -27.733363684085521, 20.529999999998836 ] } },
{ "type": "Feature", "properties": { "Asset_ID": "67645", "Assetic_As": "SPS009", "USE_": "Pump Station", "DIAMETER_m": 300, "INVERTLEVE": -999.0, "MH_NUMBER": null, "CATCHMENTP": null, "OWNER": "LCC", "STATUS": "Existing", "ProjectID": "DF" }, "geometry": { "type": "Point", "coordinates": [ 153.066358663090114, -27.671445537493245, 0.0 ] } },
{ "type": "Feature", "properties": { "Asset_ID": "68165", "Assetic_As": "ZPS30110", "USE_": "Pump Station", "DIAMETER_m": 50, "INVERTLEVE": -999.0, "MH_NUMBER": null, "CATCHMENTP": null, "OWNER": "P", "STATUS": "Existing", "ProjectID": "Private" }, "geometry": { "type": "Point", "coordinates": [ 153.139318539651583, -27.664717973558421, 0.0 ] } },
{ "type": "Feature", "properties": { "Asset_ID": "68850", "Assetic_As": "SPS061", "USE_": "Pump Station", "DIAMETER_m": 225, "INVERTLEVE": 23.493, "MH_NUMBER": null, "CATCHMENTP": null, "OWNER": "LCC", "STATUS": "Existing", "ProjectID": "DF" }, "geometry": { "type": "Point", "coordinates": [ 153.097093363162429, -27.640368739424378, 0.0 ] } },
{ "type": "Feature", "properties": { "Asset_ID": "69368", "Assetic_As": "SPS057", "USE_": "Pump Station", "DIAMETER_m": 1800, "INVERTLEVE": -999.0, "MH_NUMBER": null, "CATCHMENTP": null, "OWNER": "LCC", "STATUS": "Existing", "ProjectID": "DF" }, "geometry": { "type": "Point", "coordinates": [ 153.109593958577733, -27.605386405147293, 0.0 ] } },
{ "type": "Feature", "properties": { "Asset_ID": "69621", "Assetic_As": "SPS053", "USE_": "Pump Station", "DIAMETER_m": 150, "INVERTLEVE": -999.0, "MH_NUMBER": null, "CATCHMENTP": null, "OWNER": "LCC", "STATUS": "Existing", "ProjectID": "DF" }, "geometry": { "type": "Point", "coordinates": [ 153.026762906209882, -27.696807945298257, 0.0 ] } },
{ "type": "Feature", "properties": { "Asset_ID": "72831", "Assetic_As": "SPS011", "USE_": "Pump Station", "DIAMETER_m": 1800, "INVERTLEVE": 44.19, "MH_NUMBER": null, "CATCHMENTP": null, "OWNER": "LCC", "STATUS": "Existing", "ProjectID": "DF" }, "geometry": { "type": "Point", "coordinates": [ 153.114920644579399, -27.594868605666534, 0.0 ] } },
{ "type": "Feature", "properties": { "Asset_ID": "84915", "Assetic_As": "SPS002", "USE_": "Pump Station", "DIAMETER_m": 1500, "INVERTLEVE": -8.2, "MH_NUMBER": null, "CATCHMENTP": null, "OWNER": "LCC", "STATUS": "Existing", "ProjectID": "DF" }, "geometry": { "type": "Point", "coordinates": [ 153.160292255507073, -27.652852886724538, 0.0 ] } },
{ "type": "Feature", "properties": { "Asset_ID": "85182", "Assetic_As": "SPS039", "USE_": "Pump Station", "DIAMETER_m": 375, "INVERTLEVE": -999.0, "MH_NUMBER": null, "CATCHMENTP": null, "OWNER": "LCC", "STATUS": "Existing", "ProjectID": "DF" }, "geometry": { "type": "Point", "coordinates": [ 153.137843755514183, -27.603755980420495, 0.0 ] } },
{ "type": "Feature", "properties": { "Asset_ID": "88128", "Assetic_As": "SPS034", "USE_": "Pump Station", "DIAMETER_m": 1200, "INVERTLEVE": -999.0, "MH_NUMBER": null, "CATCHMENTP": null, "OWNER": "LCC", "STATUS": "Existing", "ProjectID": "DN7042-20" }, "geometry": { "type": "Point", "coordinates": [ 153.134612772717759, -27.700769452107924, 0.0 ] } },
{ "type": "Feature", "properties": { "Asset_ID": "88164", "Assetic_As": "SPS051", "USE_": "Pump Station", "DIAMETER_m": 1150, "INVERTLEVE": 6.49, "MH_NUMBER": null, "CATCHMENTP": null, "OWNER": "LCC", "STATUS": "Existing", "ProjectID": "WW Pump Station SPS051 Renewals FY2016/17" }, "geometry": { "type": "Point", "coordinates": [ 153.128626678183338, -27.693507840454885, 0.0 ] } },
{ "type": "Feature", "properties": { "Asset_ID": "95774", "Assetic_As": "SPS058", "USE_": "Pump Station", "DIAMETER_m": 150, "INVERTLEVE": -999.0, "MH_NUMBER": null, "CATCHMENTP": null, "OWNER": "LCC", "STATUS": "Existing", "ProjectID": "DF" }, "geometry": { "type": "Point", "coordinates": [ 153.113943414928485, -27.693499110457864, 0.0 ] } },
{ "type": "Feature", "properties": { "Asset_ID": "95841", "Assetic_As": "ZPS30114", "USE_": "Pump Station", "DIAMETER_m": 50, "INVERTLEVE": 1.517, "MH_NUMBER": null, "CATCHMENTP": null, "OWNER": "P", "STATUS": "Existing", "ProjectID": "Private" }, "geometry": { "type": "Point", "coordinates": [ 153.194511884107442, -27.692363853492704, 0.0 ] } },
{ "type": "Feature", "properties": { "Asset_ID": "96646", "Assetic_As": "ZPS30115", "USE_": "Pump Station", "DIAMETER_m": 32, "INVERTLEVE": 47.4, "MH_NUMBER": null, "CATCHMENTP": null, "OWNER": "P", "STATUS": "Existing", "ProjectID": "Private" }, "geometry": { "type": "Point", "coordinates": [ 153.188363310307835, -27.652462972244937, 0.0 ] } },
{ "type": "Feature", "properties": { "Asset_ID": "97887", "Assetic_As": "ZPS30132", "USE_": "Pump Station", "DIAMETER_m": 1050, "INVERTLEVE": -999.0, "MH_NUMBER": null, "CATCHMENTP": null, "OWNER": "P", "STATUS": "Existing", "ProjectID": "Private" }, "geometry": { "type": "Point", "coordinates": [ 153.121943861502132, -27.594586691003137, 0.0 ] } },
{ "type": "Feature", "properties": { "Asset_ID": "98857", "Assetic_As": "ZPS30107", "USE_": "Pump Station", "DIAMETER_m": 1050, "INVERTLEVE": -999.0, "MH_NUMBER": null, "CATCHMENTP": null, "OWNER": "P", "STATUS": "Existing", "ProjectID": "Private" }, "geometry": { "type": "Point", "coordinates": [ 153.150140735175142, -27.589790731836491, 0.0 ] } },
{ "type": "Feature", "properties": { "Asset_ID": "99268", "Assetic_As": "SPS067", "USE_": "Pump Station", "DIAMETER_m": 300, "INVERTLEVE": 15.03, "MH_NUMBER": null, "CATCHMENTP": null, "OWNER": "LCC", "STATUS": "Existing", "ProjectID": "VDE01" }, "geometry": { "type": "Point", "coordinates": [ 153.080261380946666, -27.661073743793931, 0.0 ] } },
{ "type": "Feature", "properties": { "Asset_ID": "99672", "Assetic_As": "SPS078", "USE_": "Pump Station", "DIAMETER_m": 2400, "INVERTLEVE": 34.052, "MH_NUMBER": null, "CATCHMENTP": null, "OWNER": "LCC", "STATUS": "Existing", "ProjectID": "DF" }, "geometry": { "type": "Point", "coordinates": [ 152.959036769033958, -27.813085448775922, 0.0 ] } },
{ "type": "Feature", "properties": { "Asset_ID": "99854", "Assetic_As": "SPS079", "USE_": "Pump Station", "DIAMETER_m": 2100, "INVERTLEVE": 31.87, "MH_NUMBER": null, "CATCHMENTP": null, "OWNER": "LCC", "STATUS": "Existing", "ProjectID": "DF" }, "geometry": { "type": "Point", "coordinates": [ 152.959591073502907, -27.800691927827426, 0.0 ] } },
{ "type": "Feature", "properties": { "Asset_ID": "100041", "Assetic_As": "SPS073", "USE_": "Pump Station", "DIAMETER_m": 150, "INVERTLEVE": 25.12, "MH_NUMBER": null, "CATCHMENTP": null, "OWNER": "LCC", "STATUS": "Existing", "ProjectID": "DF" }, "geometry": { "type": "Point", "coordinates": [ 153.024012901896327, -27.83020055586088, 0.0 ] } },
{ "type": "Feature", "properties": { "Asset_ID": "100234", "Assetic_As": "SPS071", "USE_": "Pump Station", "DIAMETER_m": 150, "INVERTLEVE": 16.01, "MH_NUMBER": null, "CATCHMENTP": null, "OWNER": "LCC", "STATUS": "Existing", "ProjectID": "DF" }, "geometry": { "type": "Point", "coordinates": [ 153.108991571750948, -27.76966164383165, 0.0 ] } },
{ "type": "Feature", "properties": { "Asset_ID": "100282", "Assetic_As": "SPS072", "USE_": "Pump Station", "DIAMETER_m": 150, "INVERTLEVE": 16.041, "MH_NUMBER": null, "CATCHMENTP": null, "OWNER": "LCC", "STATUS": "Existing", "ProjectID": "DF" }, "geometry": { "type": "Point", "coordinates": [ 153.100214547244349, -27.772629547996136, 0.0 ] } },
{ "type": "Feature", "properties": { "Asset_ID": "102452", "Assetic_As": "SPS109", "USE_": "Pump Station", "DIAMETER_m": 1800, "INVERTLEVE": 18.12, "MH_NUMBER": null, "CATCHMENTP": null, "OWNER": "LCC", "STATUS": "Existing", "ProjectID": "DF" }, "geometry": { "type": "Point", "coordinates": [ 153.203048293726823, -27.707329501722338, 0.0 ] } },
{ "type": "Feature", "properties": { "Asset_ID": "104652", "Assetic_As": "SPS111", "USE_": "Pump Station", "DIAMETER_m": 1800, "INVERTLEVE": 2.6, "MH_NUMBER": null, "CATCHMENTP": null, "OWNER": "LCC", "STATUS": "Existing", "ProjectID": "DN7042-17" }, "geometry": { "type": "Point", "coordinates": [ 153.218011319381276, -27.72227301355036, 0.0 ] } },
{ "type": "Feature", "properties": { "Asset_ID": "106953", "Assetic_As": "SPS141", "USE_": "Pump Station", "DIAMETER_m": 2100, "INVERTLEVE": 11.46, "MH_NUMBER": null, "CATCHMENTP": null, "OWNER": "LCC", "STATUS": "Existing", "ProjectID": "DN7042-19" }, "geometry": { "type": "Point", "coordinates": [ 153.18548686305499, -27.74035035137053, 0.0 ] } },
{ "type": "Feature", "properties": { "Asset_ID": "107287", "Assetic_As": "SPS134", "USE_": "Pump Station", "DIAMETER_m": 500, "INVERTLEVE": 5.9, "MH_NUMBER": null, "CATCHMENTP": null, "OWNER": "LCC", "STATUS": "Existing", "ProjectID": "DF" }, "geometry": { "type": "Point", "coordinates": [ 153.191843865338967, -27.707714587047473, 0.0 ] } },
{ "type": "Feature", "properties": { "Asset_ID": "107470", "Assetic_As": "ZPS30116", "USE_": "Pump Station", "DIAMETER_m": 0, "INVERTLEVE": -999.0, "MH_NUMBER": null, "CATCHMENTP": null, "OWNER": "P", "STATUS": "Existing", "ProjectID": "Private" }, "geometry": { "type": "Point", "coordinates": [ 153.156374155989397, -27.697813851673498, 0.0 ] } },
{ "type": "Feature", "properties": { "Asset_ID": "107474", "Assetic_As": "ZPS30121", "USE_": "Pump Station", "DIAMETER_m": 0, "INVERTLEVE": -999.0, "MH_NUMBER": null, "CATCHMENTP": null, "OWNER": "P", "STATUS": "Existing", "ProjectID": "Private" }, "geometry": { "type": "Point", "coordinates": [ 153.155791013262672, -27.695537740873164, 0.0 ] } },
{ "type": "Feature", "properties": { "Asset_ID": "107478", "Assetic_As": "ZPS30125", "USE_": "Pump Station", "DIAMETER_m": 0, "INVERTLEVE": -999.0, "MH_NUMBER": null, "CATCHMENTP": null, "OWNER": "P", "STATUS": "Existing", "ProjectID": "Private" }, "geometry": { "type": "Point", "coordinates": [ 153.158956386467679, -27.68622678236996, 0.0 ] } },
{ "type": "Feature", "properties": { "Asset_ID": "108247", "Assetic_As": "SPS133", "USE_": "Pump Station", "DIAMETER_m": 4000, "INVERTLEVE": -999.0, "MH_NUMBER": null, "CATCHMENTP": null, "OWNER": "LCC", "STATUS": "Existing", "ProjectID": "DF" }, "geometry": { "type": "Point", "coordinates": [ 153.14774334257109, -27.697546654299074, 0.0 ] } },
{ "type": "Feature", "properties": { "Asset_ID": "110747", "Assetic_As": "SPS081", "USE_": "Pump Station", "DIAMETER_m": 375, "INVERTLEVE": -999.0, "MH_NUMBER": null, "CATCHMENTP": null, "OWNER": "LCC", "STATUS": "Existing", "ProjectID": "LWAlliance" }, "geometry": { "type": "Point", "coordinates": [ 153.102861982164228, -27.769884436939634, 0.0 ] } },
{ "type": "Feature", "properties": { "Asset_ID": "111114", "Assetic_As": "ZPS30133", "USE_": "Pump Station", "DIAMETER_m": 500, "INVERTLEVE": -999.0, "MH_NUMBER": null, "CATCHMENTP": null, "OWNER": "P", "STATUS": "Existing", "ProjectID": "GCCC Alliance" }, "geometry": { "type": "Point", "coordinates": [ 153.22627187406502, -27.735780050955327, 0.0 ] } },
{ "type": "Feature", "properties": { "Asset_ID": "111274", "Assetic_As": "SPS083", "USE_": "Pump Station", "DIAMETER_m": 4000, "INVERTLEVE": -999.0, "MH_NUMBER": null, "CATCHMENTP": null, "OWNER": "LCC", "STATUS": "Existing", "ProjectID": "LWAlliance" }, "geometry": { "type": "Point", "coordinates": [ 153.112843333134435, -27.708337973903813, 0.0 ] } },
{ "type": "Feature", "properties": { "Asset_ID": "112062", "Assetic_As": "SPS092", "USE_": "Pump Station", "DIAMETER_m": 3200, "INVERTLEVE": -999.0, "MH_NUMBER": null, "CATCHMENTP": null, "OWNER": "LCC", "STATUS": "Existing", "ProjectID": "LWAlliance" }, "geometry": { "type": "Point", "coordinates": [ 153.184416525836042, -27.691959736789659, 0.0 ] } },
{ "type": "Feature", "properties": { "Asset_ID": "112553", "Assetic_As": "SPS084", "USE_": "Pump Station", "DIAMETER_m": 3200, "INVERTLEVE": 22.0, "MH_NUMBER": null, "CATCHMENTP": null, "OWNER": "LCC", "STATUS": "Existing", "ProjectID": "OW/139/2013" }, "geometry": { "type": "Point", "coordinates": [ 153.114330690685847, -27.798435551088001, 23.0 ] } },
{ "type": "Feature", "properties": { "Asset_ID": "113487", "Assetic_As": "SPS086", "USE_": "Pump Station", "DIAMETER_m": 1800, "INVERTLEVE": -999.0, "MH_NUMBER": null, "CATCHMENTP": null, "OWNER": "LCC", "STATUS": "Existing", "ProjectID": "OW/15/2015" }, "geometry": { "type": "Point", "coordinates": [ 153.092656103181668, -27.770247321855756, 0.0 ] } },
{ "type": "Feature", "properties": { "Asset_ID": "114278", "Assetic_As": "SPS094", "USE_": "Pump Station", "DIAMETER_m": 6000, "INVERTLEVE": -999.0, "MH_NUMBER": null, "CATCHMENTP": null, "OWNER": "LCC", "STATUS": "Existing", "ProjectID": "LWAlliance" }, "geometry": { "type": "Point", "coordinates": [ 153.103033749382973, -27.692966644476911, 0.0 ] } },
{ "type": "Feature", "properties": { "Asset_ID": "263936", "Assetic_As": "SPS088", "USE_": "Pump Station", "DIAMETER_m": 3000, "INVERTLEVE": 4.88, "MH_NUMBER": "SPS088", "CATCHMENTP": null, "OWNER": "LCC", "STATUS": "Existing", "ProjectID": "LWAlliance CD00109 WP011" }, "geometry": { "type": "Point", "coordinates": [ 153.11098265589203, -27.699342644480915, 13.44999999999709 ] } },
{ "type": "Feature", "properties": { "Asset_ID": "267610", "Assetic_As": "SPS146", "USE_": "Pump Station", "DIAMETER_m": 1050, "INVERTLEVE": 30.192, "MH_NUMBER": "Pump Station", "CATCHMENTP": null, "OWNER": "LCC", "STATUS": "Existing", "ProjectID": "OW/344/2016 Brookhaven SPS and Rising Main BAHRS SCRUB" }, "geometry": { "type": "Point", "coordinates": [ 153.167537416860597, -27.731029979029419, 35.05000000000291 ] } },
{ "type": "Feature", "properties": { "Asset_ID": "270050", "Assetic_As": "SPS093", "USE_": "Pump Station", "DIAMETER_m": 1200, "INVERTLEVE": 16.764, "MH_NUMBER": "PS/1", "CATCHMENTP": null, "OWNER": "LCC", "STATUS": "Existing", "ProjectID": "OW/414/2016_Lady Ardee Cct Logan Village" }, "geometry": { "type": "Point", "coordinates": [ 153.086464886128937, -27.770929962939295, 19.459000000002561 ] } },
{ "type": "Feature", "properties": { "Asset_ID": "280892", "Assetic_As": "ZPS30148", "USE_": "Pump Station", "DIAMETER_m": 0, "INVERTLEVE": 0.0, "MH_NUMBER": null, "CATCHMENTP": null, "OWNER": "P", "STATUS": "Existing", "ProjectID": "DF" }, "geometry": { "type": "Point", "coordinates": [ 153.117756427670116, -27.659826068185726, 0.0 ] } },
{ "type": "Feature", "properties": { "Asset_ID": "281819", "Assetic_As": "ZPS30149", "USE_": "Pump Station", "DIAMETER_m": 1800, "INVERTLEVE": 0.0, "MH_NUMBER": null, "CATCHMENTP": null, "OWNER": "P", "STATUS": "Existing", "ProjectID": null }, "geometry": { "type": "Point", "coordinates": [ 153.107689977584045, -27.59735995100878, 0.0 ] } },
{ "type": "Feature", "properties": { "Asset_ID": "282369", "Assetic_As": "ZPS30150", "USE_": "Pump Station", "DIAMETER_m": 0, "INVERTLEVE": 0.0, "MH_NUMBER": null, "CATCHMENTP": null, "OWNER": "P", "STATUS": "Existing", "ProjectID": null }, "geometry": { "type": "Point", "coordinates": [ 153.188716214875285, -27.740125477393349, 0.0 ] } },
{ "type": "Feature", "properties": { "Asset_ID": "286009", "Assetic_As": "ZPS30152", "USE_": "Pump Station", "DIAMETER_m": 1400, "INVERTLEVE": 0.0, "MH_NUMBER": null, "CATCHMENTP": null, "OWNER": "P", "STATUS": "Existing", "ProjectID": null }, "geometry": { "type": "Point", "coordinates": [ 153.10919007363924, -27.598601053350038, 0.0 ] } },
{ "type": "Feature", "properties": { "Asset_ID": "286058", "Assetic_As": "ZPS30151", "USE_": "Pump Station", "DIAMETER_m": 1400, "INVERTLEVE": 0.0, "MH_NUMBER": null, "CATCHMENTP": null, "OWNER": "P", "STATUS": "Existing", "ProjectID": null }, "geometry": { "type": "Point", "coordinates": [ 153.153683271769211, -27.677788950771657, 0.0 ] } },
{ "type": "Feature", "properties": { "Asset_ID": "286084", "Assetic_As": "SPS152", "USE_": "Pump Station", "DIAMETER_m": 6600, "INVERTLEVE": 28.658, "MH_NUMBER": "SPS152", "CATCHMENTP": null, "OWNER": "LCC", "STATUS": "Existing", "ProjectID": "LWAlliance LS304-06" }, "geometry": { "type": "Point", "coordinates": [ 152.928169622953163, -27.833691141735375, 0.0 ] } },
{ "type": "Feature", "properties": { "Asset_ID": "286083", "Assetic_As": "SPS148", "USE_": "Pump Station", "DIAMETER_m": 2400, "INVERTLEVE": 2.46, "MH_NUMBER": null, "CATCHMENTP": null, "OWNER": "LCC", "STATUS": "Existing", "ProjectID": "WP025" }, "geometry": { "type": "Point", "coordinates": [ 153.105858313193636, -27.707719298541917, 0.0 ] } },
{ "type": "Feature", "properties": { "Asset_ID": "286156", "Assetic_As": "ZPS30157", "USE_": "Pump Station", "DIAMETER_m": 1000, "INVERTLEVE": 38.619, "MH_NUMBER": null, "CATCHMENTP": null, "OWNER": "P", "STATUS": "Existing", "ProjectID": "BCC" }, "geometry": { "type": "Point", "coordinates": [ 153.095107953228705, -27.625231359894368, 0.0 ] } },
{ "type": "Feature", "properties": { "Asset_ID": "493525", "Assetic_As": "SPS162", "USE_": "Pump Station", "DIAMETER_m": 3200, "INVERTLEVE": 26.31, "MH_NUMBER": null, "CATCHMENTP": null, "OWNER": "LCC", "STATUS": "Existing", "ProjectID": "DEV2012/402" }, "geometry": { "type": "Point", "coordinates": [ 152.970007537428813, -27.79216630578474, 0.0 ] } },
{ "type": "Feature", "properties": { "Asset_ID": "569139", "Assetic_As": "SPS160", "USE_": "Pump Station", "DIAMETER_m": 3600, "INVERTLEVE": 0.0, "MH_NUMBER": null, "CATCHMENTP": null, "OWNER": "LCC", "STATUS": "Existing", "ProjectID": "WP033-01" }, "geometry": { "type": "Point", "coordinates": [ 153.117213108732187, -27.714639268857859, 0.0 ] } },
{ "type": "Feature", "properties": { "Asset_ID": "583886", "Assetic_As": "SPS151", "USE_": "Pump Station", "DIAMETER_m": 600, "INVERTLEVE": 29.025, "MH_NUMBER": "SPS151 Well", "CATCHMENTP": null, "OWNER": "LCC", "STATUS": "Existing", "ProjectID": "LWAlliance LS304-01" }, "geometry": { "type": "Point", "coordinates": [ 152.948806055422438, -27.801994897721823, 0.0 ] } },
{ "type": "Feature", "properties": { "Asset_ID": "584439", "Assetic_As": "SPS154", "USE_": "Pump Station", "DIAMETER_m": 3500, "INVERTLEVE": 13.98, "MH_NUMBER": "SPS154", "CATCHMENTP": null, "OWNER": "LCC", "STATUS": "Existing", "ProjectID": "WP028-02" }, "geometry": { "type": "Point", "coordinates": [ 153.178086381174381, -27.737989730032577, 0.0 ] } },
{ "type": "Feature", "properties": { "Asset_ID": "584546", "Assetic_As": "SPS161", "USE_": "Pump Station", "DIAMETER_m": 2400, "INVERTLEVE": 42.7, "MH_NUMBER": "SPS161", "CATCHMENTP": null, "OWNER": "LCC", "STATUS": "Existing", "ProjectID": "WP034-01" }, "geometry": { "type": "Point", "coordinates": [ 153.033275118131314, -27.711163649008267, 0.0 ] } },
{ "type": "Feature", "properties": { "Asset_ID": "625095", "Assetic_As": "SPS168", "USE_": "Pump Station", "DIAMETER_m": 2400, "INVERTLEVE": 11.77, "MH_NUMBER": null, "CATCHMENTP": null, "OWNER": "LCC", "STATUS": "Existing", "ProjectID": "DT0009" }, "geometry": { "type": "Point", "coordinates": [ 153.109260810696242, -27.764729849435874, 0.0 ] } },
{ "type": "Feature", "properties": { "Asset_ID": "627686", "Assetic_As": "SPS165", "USE_": "Pump Station", "DIAMETER_m": 4400, "INVERTLEVE": -1.35, "MH_NUMBER": null, "CATCHMENTP": null, "OWNER": "LCC", "STATUS": "Existing", "ProjectID": "DT0003" }, "geometry": { "type": "Point", "coordinates": [ 153.220457243461993, -27.703329184622397, 0.0 ] } },
{ "type": "Feature", "properties": { "Asset_ID": "640537", "Assetic_As": "SPS167", "USE_": "Pump Station", "DIAMETER_m": 2000, "INVERTLEVE": 38.531, "MH_NUMBER": "Temp SPS", "CATCHMENTP": null, "OWNER": "LCC", "STATUS": "Existing", "ProjectID": "DEV2018/999" }, "geometry": { "type": "Point", "coordinates": [ 152.997196639386317, -27.740368477622397, 39.982000000003609 ] } },
{ "type": "Feature", "properties": { "Asset_ID": "96315", "Assetic_As": "SPS177", "USE_": "Pump Station", "DIAMETER_m": 1050, "INVERTLEVE": -2.012, "MH_NUMBER": null, "CATCHMENTP": null, "OWNER": "LCC", "STATUS": "Existing", "ProjectID": "PBE027" }, "geometry": { "type": "Point", "coordinates": [ 153.194631657724898, -27.684308486141884, 0.0 ] } },
{ "type": "Feature", "properties": { "Asset_ID": "286081", "Assetic_As": "SPS149", "USE_": "Pump Station", "DIAMETER_m": 3000, "INVERTLEVE": 25.09, "MH_NUMBER": "SPS149", "CATCHMENTP": null, "OWNER": "LCC", "STATUS": "Existing", "ProjectID": null }, "geometry": { "type": "Point", "coordinates": [ 153.039550211689487, -27.835127029877295, 30.87840000000142 ] } },
{ "type": "Feature", "properties": { "Asset_ID": "651558", "Assetic_As": "SPS171", "USE_": "Pump Station", "DIAMETER_m": 2250, "INVERTLEVE": 25.99, "MH_NUMBER": "1", "CATCHMENTP": null, "OWNER": "LCC", "STATUS": "Existing", "ProjectID": "OW/232/2021" }, "geometry": { "type": "Point", "coordinates": [ 153.156827060141438, -27.72218928511462, 30.982999999992899 ] } },
{ "type": "Feature", "properties": { "Asset_ID": "653224", "Assetic_As": "ZPS30153", "USE_": "Pump Station", "DIAMETER_m": 0, "INVERTLEVE": 0.0, "MH_NUMBER": null, "CATCHMENTP": null, "OWNER": "P", "STATUS": "Existing", "ProjectID": "ZPS30153" }, "geometry": { "type": "Point", "coordinates": [ 153.100139339106448, -27.768835752350096, 0.0 ] } },
{ "type": "Feature", "properties": { "Asset_ID": "657019", "Assetic_As": "SPS164", "USE_": "Pump Station", "DIAMETER_m": 2480, "INVERTLEVE": 40.849, "MH_NUMBER": null, "CATCHMENTP": null, "OWNER": "LCC", "STATUS": "Existing", "ProjectID": "FLAGSTONE STG 2-3" }, "geometry": { "type": "Point", "coordinates": [ 152.951651676670707, -27.797178279748227, 0.0 ] } },
{ "type": "Feature", "properties": { "Asset_ID": "657241", "Assetic_As": "ZPS30161", "USE_": "Pump Station", "DIAMETER_m": 0, "INVERTLEVE": 0.0, "MH_NUMBER": null, "CATCHMENTP": null, "OWNER": "P", "STATUS": "Existing", "ProjectID": null }, "geometry": { "type": "Point", "coordinates": [ 153.192768878942474, -27.698967467347888, 0.0 ] } },
{ "type": "Feature", "properties": { "Asset_ID": "659926", "Assetic_As": "SPS153", "USE_": "Pump Station", "DIAMETER_m": 1050, "INVERTLEVE": 19.007, "MH_NUMBER": "MH PS/TS1", "CATCHMENTP": null, "OWNER": "LCC", "STATUS": "Existing", "ProjectID": "SR03095" }, "geometry": { "type": "Point", "coordinates": [ 153.124209264671862, -27.814000896226904, 0.0 ] } },
{ "type": "Feature", "properties": { "Asset_ID": "677787", "Assetic_As": "ZPS30156", "USE_": "Pump Station", "DIAMETER_m": 0, "INVERTLEVE": 13.46, "MH_NUMBER": null, "CATCHMENTP": null, "OWNER": "P", "STATUS": "Existing", "ProjectID": null }, "geometry": { "type": "Point", "coordinates": [ 153.10984480017953, -27.686641174012955, 0.0 ] } },
{ "type": "Feature", "properties": { "Asset_ID": "691984", "Assetic_As": null, "USE_": "Pump Station", "DIAMETER_m": 1800, "INVERTLEVE": 0.0, "MH_NUMBER": null, "CATCHMENTP": null, "OWNER": "P", "STATUS": "Existing", "ProjectID": "COM/1397/2008 BA 63688" }, "geometry": { "type": "Point", "coordinates": [ 153.030043290041164, -27.835400959570912, 0.0 ] } },
{ "type": "Feature", "properties": { "Asset_ID": "694292", "Assetic_As": "SPS172", "USE_": "Pump Station", "DIAMETER_m": 2250, "INVERTLEVE": 0.0, "MH_NUMBER": null, "CATCHMENTP": null, "OWNER": "LCC", "STATUS": "Existing", "ProjectID": null }, "geometry": { "type": "Point", "coordinates": [ 153.038997425544949, -27.841272363876048, 40.848499999992782 ] } },
{ "type": "Feature", "properties": { "Asset_ID": "721768", "Assetic_As": "ZPS30162", "USE_": "Pump Station", "DIAMETER_m": 0, "INVERTLEVE": 0.0, "MH_NUMBER": null, "CATCHMENTP": null, "OWNER": "P", "STATUS": "Existing", "ProjectID": "PDCOM/1922/2015" }, "geometry": { "type": "Point", "coordinates": [ 153.160854325839296, -27.689218827589624, 0.0 ] } },
{ "type": "Feature", "properties": { "Asset_ID": "733634", "Assetic_As": null, "USE_": "Pump Station", "DIAMETER_m": 0, "INVERTLEVE": 13.06, "MH_NUMBER": null, "CATCHMENTP": null, "OWNER": "P", "STATUS": "Existing", "ProjectID": "OW/259/2022" }, "geometry": { "type": "Point", "coordinates": [ 153.094391020604576, -27.712766935776351, 0.0 ] } },
{ "type": "Feature", "properties": { "Asset_ID": "738864", "Assetic_As": "ZPS30163", "USE_": "Pump Station", "DIAMETER_m": 0, "INVERTLEVE": 0.0, "MH_NUMBER": null, "CATCHMENTP": null, "OWNER": "P", "STATUS": "Existing", "ProjectID": "PN300145 / PWSI/2018/3129 Noyer Park: Private PS ZPS30163" }, "geometry": { "type": "Point", "coordinates": [ 153.194982358132705, -27.73651605972864, 0.0 ] } },
{ "type": "Feature", "properties": { "Asset_ID": "741856", "Assetic_As": "SPS170", "USE_": "Pump Station", "DIAMETER_m": 0, "INVERTLEVE": 0.0, "MH_NUMBER": null, "CATCHMENTP": null, "OWNER": "LCC", "STATUS": "Existing", "ProjectID": "DT0013" }, "geometry": { "type": "Point", "coordinates": [ 153.070284184798652, -27.692382991695133, 0.0 ] } },
{ "type": "Feature", "properties": { "Asset_ID": "746051", "Assetic_As": null, "USE_": "Pump Station", "DIAMETER_m": 0, "INVERTLEVE": 0.0, "MH_NUMBER": null, "CATCHMENTP": null, "OWNER": "P", "STATUS": "Existing", "ProjectID": null }, "geometry": { "type": "Point", "coordinates": [ 153.149526445322977, -27.664364224736683, 0.0 ] } },
{ "type": "Feature", "properties": { "Asset_ID": "758660", "Assetic_As": null, "USE_": "Pump Station", "DIAMETER_m": 0, "INVERTLEVE": 0.0, "MH_NUMBER": null, "CATCHMENTP": null, "OWNER": "P", "STATUS": "Existing", "ProjectID": null }, "geometry": { "type": "Point", "coordinates": [ 153.096815108345709, -27.709068666159187, 0.0 ] } },
{ "type": "Feature", "properties": { "Asset_ID": "758665", "Assetic_As": null, "USE_": "Pump Station", "DIAMETER_m": 0, "INVERTLEVE": 0.0, "MH_NUMBER": null, "CATCHMENTP": null, "OWNER": "P", "STATUS": "Existing", "ProjectID": null }, "geometry": { "type": "Point", "coordinates": [ 153.094427455164634, -27.708650994281967, 0.0 ] } },
{ "type": "Feature", "properties": { "Asset_ID": "758662", "Assetic_As": null, "USE_": "Pump Station", "DIAMETER_m": 0, "INVERTLEVE": 0.0, "MH_NUMBER": null, "CATCHMENTP": null, "OWNER": "P", "STATUS": "Existing", "ProjectID": null }, "geometry": { "type": "Point", "coordinates": [ 153.095268974435754, -27.708824186931945, 0.0 ] } },
{ "type": "Feature", "properties": { "Asset_ID": "759188", "Assetic_As": null, "USE_": "Pump Station", "DIAMETER_m": 1000, "INVERTLEVE": 24.887, "MH_NUMBER": "1/3", "CATCHMENTP": null, "OWNER": "P", "STATUS": "Existing", "ProjectID": null }, "geometry": { "type": "Point", "coordinates": [ 153.207399901481978, -27.710955478809602, 0.0 ] } },
{ "type": "Feature", "properties": { "Asset_ID": "758965", "Assetic_As": null, "USE_": "Pump Station", "DIAMETER_m": 1500, "INVERTLEVE": 15.04, "MH_NUMBER": null, "CATCHMENTP": null, "OWNER": "P", "STATUS": "Existing", "ProjectID": null }, "geometry": { "type": "Point", "coordinates": [ 153.116429809904218, -27.766121742756738, 0.0 ] } },
{ "type": "Feature", "properties": { "Asset_ID": "758964", "Assetic_As": null, "USE_": "Pump Station", "DIAMETER_m": 2200, "INVERTLEVE": 9.83, "MH_NUMBER": null, "CATCHMENTP": null, "OWNER": "P", "STATUS": "Existing", "ProjectID": null }, "geometry": { "type": "Point", "coordinates": [ 153.11402517109434, -27.763968505020966, 0.0 ] } },
{ "type": "Feature", "properties": { "Asset_ID": "759329", "Assetic_As": null, "USE_": "Pump Station", "DIAMETER_m": 1500, "INVERTLEVE": 8.864, "MH_NUMBER": "ZPS MH 4/1", "CATCHMENTP": null, "OWNER": "P", "STATUS": "Existing", "ProjectID": null }, "geometry": { "type": "Point", "coordinates": [ 153.179756596361528, -27.703984792911708, 0.0 ] } },
{ "type": "Feature", "properties": { "Asset_ID": "759497", "Assetic_As": null, "USE_": "Pump Station", "DIAMETER_m": 1520, "INVERTLEVE": 0.0, "MH_NUMBER": null, "CATCHMENTP": null, "OWNER": "P", "STATUS": "Existing", "ProjectID": "OW/182/2020/A" }, "geometry": { "type": "Point", "coordinates": [ 153.105761463589545, -27.769965405985328, 0.0 ] } },
{ "type": "Feature", "properties": { "Asset_ID": "759495", "Assetic_As": null, "USE_": "Pump Station", "DIAMETER_m": 1520, "INVERTLEVE": 0.0, "MH_NUMBER": null, "CATCHMENTP": null, "OWNER": "P", "STATUS": "Existing", "ProjectID": "OW/182/2020/A" }, "geometry": { "type": "Point", "coordinates": [ 153.106113698637017, -27.769716816858793, 0.0 ] } },
{ "type": "Feature", "properties": { "Asset_ID": "759496", "Assetic_As": null, "USE_": "Pump Station", "DIAMETER_m": 0, "INVERTLEVE": 0.0, "MH_NUMBER": null, "CATCHMENTP": null, "OWNER": "P", "STATUS": "Existing", "ProjectID": "OW/182/2020/A" }, "geometry": { "type": "Point", "coordinates": [ 153.106097653977031, -27.769740946380669, 0.0 ] } },
{ "type": "Feature", "properties": { "Asset_ID": "763462", "Assetic_As": "ZPS30178", "USE_": "Pump Station", "DIAMETER_m": 0, "INVERTLEVE": 0.0, "MH_NUMBER": null, "CATCHMENTP": null, "OWNER": "P", "STATUS": "Existing", "ProjectID": null }, "geometry": { "type": "Point", "coordinates": [ 153.152412381981577, -27.709926037222701, 0.0 ] } },
{ "type": "Feature", "properties": { "Asset_ID": "770791", "Assetic_As": "SPS179", "USE_": "Pump Station", "DIAMETER_m": 0, "INVERTLEVE": 27.51, "MH_NUMBER": "WET WELL", "CATCHMENTP": null, "OWNER": "LCC", "STATUS": "Existing", "ProjectID": "DT8002" }, "geometry": { "type": "Point", "coordinates": [ 152.955695780396724, -27.789812981593204, 0.0 ] } },
{ "type": "Feature", "properties": { "Asset_ID": "770818", "Assetic_As": "SPS178", "USE_": "Pump Station", "DIAMETER_m": 2700, "INVERTLEVE": 16.04, "MH_NUMBER": "SPS 178 Wet Well", "CATCHMENTP": null, "OWNER": "LCC", "STATUS": "Existing", "ProjectID": "DT8003" }, "geometry": { "type": "Point", "coordinates": [ 153.019125809500963, -27.760009495670964, 0.0 ] } },
{ "type": "Feature", "properties": { "Asset_ID": "770819", "Assetic_As": "ZPS30173", "USE_": "Pump Station", "DIAMETER_m": 1520, "INVERTLEVE": 0.0, "MH_NUMBER": null, "CATCHMENTP": null, "OWNER": "P", "STATUS": "Existing", "ProjectID": null }, "geometry": { "type": "Point", "coordinates": [ 153.10602168627014, -27.769590573405036, 0.0 ] } },
{ "type": "Feature", "properties": { "Asset_ID": "771014", "Assetic_As": null, "USE_": "Pump Station", "DIAMETER_m": 0, "INVERTLEVE": 0.0, "MH_NUMBER": null, "CATCHMENTP": null, "OWNER": "LCC", "STATUS": "Existing", "ProjectID": "EVERLEIGH PRECINCT 10.6 - Sewage Pump Station C" }, "geometry": { "type": "Point", "coordinates": [ 152.99895839150139, -27.732462156680715, 0.0 ] } },
{ "type": "Feature", "properties": { "Asset_ID": "849589", "Assetic_As": null, "USE_": "Pump Station", "DIAMETER_m": 0, "INVERTLEVE": 0.0, "MH_NUMBER": null, "CATCHMENTP": null, "OWNER": "LCC", "STATUS": "Existing", "ProjectID": "OW/170/2021 RIVERTON STAGE 2E SPS" }, "geometry": { "type": "Point", "coordinates": [ 153.012125058200184, -27.825990479915042, 0.0 ] } },
{ "type": "Feature", "properties": { "Asset_ID": "849715", "Assetic_As": null, "USE_": "Pump Station", "DIAMETER_m": 0, "INVERTLEVE": 0.0, "MH_NUMBER": null, "CATCHMENTP": null, "OWNER": "P", "STATUS": "Existing", "ProjectID": null }, "geometry": { "type": "Point", "coordinates": [ 153.105106612594824, -27.765079241066243, 0.0 ] } }
]
}
